COMMENT,ORIGINATOR,NORAD_CAT_ID,OBJECT_NAME,OBJECT_TYPE,CLASSIFICATION_TYPE,INTLDES,EPOCH,EPOCH_MICROSECONDS,MEAN_MOTION,ECCENTRICITY,INCLINATION,RA_OF_ASC_NODE,ARG_OF_PERICENTER,MEAN_ANOMALY,EPHEMERIS_TYPE,ELEMENT_SET_NO,REV_AT_EPOCH,BSTAR,MEAN_MOTION_DOT,MEAN_MOTION_DDOT,FILE,TLE_LINE0,TLE_LINE1,TLE_LINE2,OBJECT_ID,OBJECT_NUMBER,SEMIMAJOR_AXIS,PERIOD,APOGEE,PERIGEE,DECAYED,date
GENERATED VIA SPACETRACK.ORG API,18 SPCS,52180,SPACEBEE-134,PAYLOAD,U,22033Z,2023/2/12 11:49,295264,15.32029693,0.0007427,97.3585,126.5574,250.4772,109.5667,0,999,4828,0.001924,0.00059868,0,3787692,0 SPACEBEE-134,1 52180U 22033Z   23043.49259601  .00059868  00000-0  19240-2 0  9998,2 52180  97.3585 126.5574 0007427 250.4772 109.5667 15.32029693 48288,2022-033Z,52180,6847.894,93.993,474.845,464.673,1,2023/4/3
GENERATED VIA SPACETRACK.ORG API,18 SPCS,52180,SPACEBEE-134,PAYLOAD,U,22033Z,2023/2/13 5:03,905248,15.32119975,0.0007478,97.3583,127.2709,247.8623,112.1825,0,999,4837,0.0018156,0.00056627,0,3788752,0 SPACEBEE-134,1 52180U 22033Z   23044.21104057  .00056627  00000-0  18156-2 0  9998,2 52180  97.3583 127.2709 0007478 247.8623 112.1825 15.32119975 48374,2022-033Z,52180,6847.625,93.987,474.611,464.37,1,2023/4/4
GENERATED VIA SPACETRACK.ORG API,18 SPCS,52180,SPACEBEE-134,PAYLOAD,U,22033Z,2023/2/13 11:20,258976,15.32148694,0.0007533,97.3583,127.5313,247.3865,112.658,0,999,4843,0.0018898,0.00059016,0,3789366,0 SPACEBEE-134,1 52180U 22033Z   23044.47228309  .00059016  00000-0  18898-2 0  9991,2 52180  97.3583 127.5313 0007533 247.3865 112.6580 15.32148694 48433,2022-033Z,52180,6847.54,93.986,474.563,464.247,1,2023/4/5
GENERATED VIA SPACETRACK.ORG API,18 SPCS,52180,SPACEBEE-134,PAYLOAD,U,22033Z,2023/2/14 10:50,7936,15.32260473,0.0007582,97.3584,128.505,244.0959,115.9502,0,999,4856,0.002081,0.00065276,0,3791298,0 SPACEBEE-134,1 52180U 22033Z   23045.45189824  .00065276  00000-0  20810-2 0  9990,2 52180  97.3584 128.5050 0007582 244.0959 115.9502 15.32260473 48569,2022-033Z,52180,6847.207,93.979,474.263,463.88,1,2023/4/6
GENERATED VIA SPACETRACK.ORG API,18 SPCS,52180,SPACEBEE-134,PAYLOAD,U,22033Z,2023/2/14 10:50,7936,15.32260473,0.0007582,97.3584,128.505,244.0959,115.9502,0,999,4858,0.002081,0.00065276,0,3791349,0 SPACEBEE-134,1 52180U 22033Z   23045.45189824  .00065276  00000-0  20810-2 0  9990,2 52180  97.3584 128.5050 0007582 244.0959 115.9502 15.32260473 48581,2022-033Z,52180,6847.207,93.979,474.263,463.88,1,2023/4/7
GENERATED VIA SPACETRACK.ORG API,18 SPCS,52180,SPACEBEE-134,PAYLOAD,U,22033Z,2023/2/15 4:05,534688,15.32342546,0.0007595,97.3586,129.2188,241.2703,118.7776,0,999,4867,0.0016947,0.00053197,0,3793181,0 SPACEBEE-134,1 52180U 22033Z   23046.17023767  .00053197  00000-0  16947-2 0  9998,2 52180  97.3586 129.2188 0007595 241.2703 118.7776 15.32342546 48679,2022-033Z,52180,6846.962,93.974,474.028,463.627,1,2023/4/8
GENERATED VIA SPACETRACK.ORG API,18 SPCS,52180,SPACEBEE-134,PAYLOAD,U,22033Z,2023/2/15 4:05,534688,15.32342546,0.0007595,97.3586,129.2188,241.2703,118.7776,0,999,4869,0.0016947,0.00053197,0,3793706,0 SPACEBEE-134,1 52180U 22033Z   23046.17023767  .00053197  00000-0  16947-2 0  9998,2 52180  97.3586 129.2188 0007595 241.2703 118.7776 15.32342546 48691,2022-033Z,52180,6846.962,93.974,474.028,463.627,1,2023/4/9
GENERATED VIA SPACETRACK.ORG API,18 SPCS,52180,SPACEBEE-134,PAYLOAD,U,22033Z,2023/2/16 5:09,440288,15.32495074,0.0007534,97.3586,130.2575,237.0916,122.9601,0,999,4883,0.0021282,0.00067266,0,3796587,0 SPACEBEE-134,1 52180U 22033Z   23047.21501667  .00067266  00000-0  21282-2 0  9994,2 52180  97.3586 130.2575 0007534 237.0916 122.9601 15.32495074 48830,2022-033Z,52180,6846.508,93.964,473.531,463.215,1,2023/4/10
GENERATED VIA SPACETRACK.ORG API,18 SPCS,52180,SPACEBEE-134,PAYLOAD,U,22033Z,2023/2/16 11:25,265280,15.32526567,0.0007535,97.3586,130.5175,236.3179,123.7345,0,999,4889,0.002098,0.00066368,0,3798293,0 SPACEBEE-134,1 52180U 22033Z   23047.47619520  .00066368  00000-0  20980-2 0  9996,2 52180  97.3586 130.5175 0007535 236.3179 123.7345 15.32526567 48895,2022-033Z,52180,6846.414,93.962,473.438,463.12,1,2023/4/11
GENERATED VIA SPACETRACK.ORG API,18 SPCS,52180,SPACEBEE-134,PAYLOAD,U,22033Z,2023/2/16 16:07,309376,15.32555529,0.0007538,97.3584,130.7124,235.9092,124.1435,0,999,4892,0.002213,0.00070108,0,3799178,0 SPACEBEE-134,1 52180U 22033Z   23047.67207534  .00070108  00000-0  22130-2 0  9992,2 52180  97.3584 130.7124 0007538 235.9092 124.1435 15.32555529 48920,2022-033Z,52180,6846.328,93.961,473.354,463.032,1,2023/4/12
GENERATED VIA SPACETRACK.ORG API,18 SPCS,52180,SPACEBEE-134,PAYLOAD,U,22033Z,2023/2/17 4:39,566944,15.32622488,0.0007662,97.3582,131.2311,233.7802,126.2732,0,999,4900,0.0016268,0.000515,0,3802730,0 SPACEBEE-134,1 52180U 22033Z   23048.19440471  .00051500  00000-0  16268-2 0  9999,2 52180  97.3582 131.2311 0007662 233.7802 126.2732 15.32622488 49007,2022-033Z,52180,6846.128,93.957,473.239,462.748,1,2023/4/13
GENERATED VIA SPACETRACK.ORG API,18 SPCS,52180,SPACEBEE-134,PAYLOAD,U,22033Z,2023/2/17 18:46,16000,15.32681725,0.0007674,97.3584,131.8157,232.2648,127.7899,0,999,4907,0.0015398,0.00048815,0,3803621,0 SPACEBEE-134,1 52180U 22033Z   23048.78200250  .00048815  00000-0  15398-2 0  9991,2 52180  97.3584 131.8157 0007674 232.2648 127.7899 15.32681725 49074,2022-033Z,52180,6845.952,93.953,473.071,462.564,1,2023/4/14
GENERATED VIA SPACETRACK.ORG API,18 SPCS,52180,SPACEBEE-134,PAYLOAD,U,22033Z,2023/2/17 18:46,16000,15.32681725,0.0007674,97.3584,131.8157,232.2648,127.7899,0,999,4909,0.0015398,0.00048815,0,3804075,0 SPACEBEE-134,1 52180U 22033Z   23048.78200250  .00048815  00000-0  15398-2 0  9991,2 52180  97.3584 131.8157 0007674 232.2648 127.7899 15.32681725 49096,2022-033Z,52180,6845.952,93.953,473.071,462.564,1,2023/4/15
GENERATED VIA SPACETRACK.ORG API,18 SPCS,52180,SPACEBEE-134,PAYLOAD,U,22033Z,2023/2/18 4:10,622272,15.3271633,0.0007686,97.3585,132.205,230.2994,129.7571,0,999,4915,0.0012745,0.00040391,0,3807124,0 SPACEBEE-134,1 52180U 22033Z   23049.17372248  .00040391  00000-0  12745-2 0  9996,2 52180  97.3585 132.2050 0007686 230.2994 129.7571 15.32716330 49156,2022-033Z,52180,6845.849,93.951,472.976,462.452,1,2023/4/16
GENERATED VIA SPACETRACK.ORG API,18 SPCS,52180,SPACEBEE-134,PAYLOAD,U,22033Z,2023/2/18 16:42,681664,15.32758508,0.0007607,97.3585,132.7249,228.5988,131.4601,0,999,4921,0.0014184,0.00045046,0,3808498,0 SPACEBEE-134,1 52180U 22033Z   23049.69600326  .00045046  00000-0  14184-2 0  9995,2 52180  97.3585 132.7249 0007607 228.5988 131.4601 15.32758508 49211,2022-033Z,52180,6845.723,93.948,472.796,462.381,1,2023/4/17
GENERATED VIA SPACETRACK.ORG API,18 SPCS,52180,SPACEBEE-134,PAYLOAD,U,22033Z,2023/2/19 11:30,734048,15.32826722,0.0007648,97.3582,133.5039,225.4617,134.6001,0,999,4935,0.0013766,0.00043803,0,3811610,0 SPACEBEE-134,1 52180U 22033Z   23050.47939507  .00043803  00000-0  13766-2 0  9993,2 52180  97.3582 133.5039 0007648 225.4617 134.6001 15.32826722 49352,2022-033Z,52180,6845.52,93.944,472.621,462.15,1,2023/4/18
GENERATED VIA SPACETRACK.ORG API,18 SPCS,52180,SPACEBEE-134,PAYLOAD,U,22033Z,2023/2/19 17:46,805312,15.32844236,0.0007708,97.3583,133.7636,224.9684,135.0935,0,999,4937,0.0011909,0.00037876,0,3813209,0 SPACEBEE-134,1 52180U 22033Z   23050.74051858  .00037876  00000-0  11909-2 0  9997,2 52180  97.3583 133.7636 0007708 224.9684 135.0935 15.32844236 49376,2022-033Z,52180,6845.468,93.943,472.61,462.057,1,2023/4/19
GENERATED VIA SPACETRACK.ORG API,18 SPCS,52180,SPACEBEE-134,PAYLOAD,U,22033Z,2023/2/20 4:44,902208,15.32884041,0.0007722,97.3579,134.2181,223.3962,136.6673,0,999,4946,0.0013107,0.00041767,0,3815761,0 SPACEBEE-134,1 52180U 22033Z   23051.19747572  .00041767  00000-0  13107-2 0  9998,2 52180  97.3579 134.2181 0007722 223.3962 136.6673 15.32884041 49464,2022-033Z,52180,6845.35,93.941,472.501,461.929,1,2023/4/20
GENERATED VIA SPACETRACK.ORG API,18 SPCS,52180,SPACEBEE-134,PAYLOAD,U,22033Z,2023/2/20 18:50,934176,15.32931432,0.0007745,97.3576,134.8025,221.2476,138.8181,0,999,4953,0.0012914,0.00041209,0,3817285,0 SPACEBEE-134,1 52180U 22033Z   23051.78497609  .00041209  00000-0  12914-2 0  9992,2 52180  97.3576 134.8025 0007745 221.2476 138.8181 15.32931432 49539,2022-033Z,52180,6845.209,93.938,472.375,461.772,1,2023/4/21
GENERATED VIA SPACETRACK.ORG API,18 SPCS,52180,SPACEBEE-134,PAYLOAD,U,22033Z,2023/2/21 12:04,559424,15.33001078,0.0007767,97.3575,135.5166,218.7106,141.358,0,999,4966,0.0015223,0.00048746,0,3819803,0 SPACEBEE-134,1 52180U 22033Z   23052.50300416  .00048746  00000-0  15223-2 0  9991,2 52180  97.3575 135.5166 0007767 218.7106 141.3580 15.33001078 49668,2022-033Z,52180,6845.001,93.933,472.183,461.55,1,2023/4/22
GENERATED VIA SPACETRACK.ORG API,18 SPCS,52180,SPACEBEE-134,PAYLOAD,U,22033Z,2023/2/21 18:20,956608,15.330282,0.0007745,97.3573,135.7765,217.7829,142.287,0,999,4968,0.0015253,0.00048884,0,3820895,0 SPACEBEE-134,1 52180U 22033Z   23052.76409672  .00048884  00000-0  15253-2 0  9999,2 52180  97.3573 135.7765 0007745 217.7829 142.2870 15.33028200 49680,2022-033Z,52180,6844.921,93.932,472.087,461.484,1,2023/4/23
GENERATED VIA SPACETRACK.ORG API,18 SPCS,52180,SPACEBEE-134,PAYLOAD,U,22033Z,2023/2/21 18:20,956608,15.330282,0.0007745,97.3573,135.7765,217.7829,142.287,0,999,4970,0.0015253,0.00048884,0,3821329,0 SPACEBEE-134,1 52180U 22033Z   23052.76409672  .00048884  00000-0  15253-2 0  9999,2 52180  97.3573 135.7765 0007745 217.7829 142.2870 15.33028200 49703,2022-033Z,52180,6844.921,93.932,472.087,461.484,1,2023/4/24
GENERATED VIA SPACETRACK.ORG API,18 SPCS,52180,SPACEBEE-134,PAYLOAD,U,22033Z,2023/2/22 5:18,308416,15.33068643,0.0007759,97.3571,136.231,216.0032,144.0688,0,999,4977,0.0013565,0.0004349,0,3824148,0 SPACEBEE-134,1 52180U 22033Z   23053.22099894  .00043490  00000-0  13565-2 0  9994,2 52180  97.3571 136.2310 0007759 216.0032 144.0688 15.33068643 49775,2022-033Z,52180,6844.8,93.929,471.976,461.354,1,2023/4/25
